{"version":"1.0","month":"2025-02","count":1473,"tles":{"24315":["1 24315U 96054A   25045.32094213 -.00000270  00000-0  00000-0 0    13","2 24315   7.9528  64.1868 0010930 226.3872 294.9969  0.99509898 41385"],"24320":["1 24320U 96056A   25048.21178350  .00000033  00000-0  00000+0 0  7053","2 24320  53.9731 253.7456 0027367 206.5742   9.7746  1.86499301201449"],"24653":["1 24653U 96063B   25046.56798528  .00000077  00000-0  00000-0 0    19","2 24653  11.5244  32.5247 0004967 192.4612 331.6688  0.99656427103437"],"24713":["1 24713U 97002A   25046.36963436 -.00000151  00000-0  00000-0 0    14","2 24713   9.8087  49.3601 0002582 188.7230 214.8024  0.99475213102587"],"24720":["1 24720U 97005A   25045.24350458  .00001231  00000-0  41817-2 0  5124","2 24720  31.1555 227.8958 5992226  97.8835  16.0870  3.84464716390954"],"24753":["1 24753U 97012A   25046.12689215  .00000236  00000-0  14059-3 0  4102","2 24753  98.8292  95.4002 0009296  47.8529 312.3434 14.16513632439583"],"24769":["1 24769U 97016B   25045.12207299  .00000049  00000-0  00000-0 0    16","2 24769  10.2075  44.7813 0004849 262.2466 284.8522  0.99119131 41960"],"24786":["1 24786U 97019A   25046.54058794  .00000059  00000-0  00000+0 0   187","2 24786  12.5500  24.5001 0030541 227.8485 322.1207  0.99122846101238"],"24793":["1 24793U 97020B   25046.50176656  .00000768  00000-0  25887-3 0  2410","2 24793  86.3937 227.8514 0002183  98.1326 262.0118 14.35762418454650"],"24795":["1 24795U 97020D   25046.50952019  .00010111  00000-0  86930-3 0  8210","2 24795  86.3938 139.7754 0111750 213.7523 145.6558 14.92506227467335"],"24796":["1 24796U 97020E   25046.56190595  .00000789  00000-0  26154-3 0    12","2 24796  86.3937 224.7831 0001980  94.7502 265.3922 14.36672750455002"],"24820":["1 24820U 97027B   25045.11303743 -.00000112  00000-0  00000-0 0    18","2 24820  12.9434 349.4772 0334586 116.4947  73.1517  1.04791593 44380"],"24836":["1 24836U 97030A   25046.06988392  .00000860  00000-0  26349-3 0  4350","2 24836  86.3903 233.9621 0000468 118.7490 241.3756 14.40655712451641"],"24841":["1 24841U 97030F   25046.61224979  .00000700  00000-0  22286-3 0    19","2 24841  86.3982 256.3483 0004227  97.4208 262.7471 14.38515306449522"],"24842":["1 24842U 97030G   25046.10667525  .00000980  00000-0  26175-3 0  6121","2 24842  86.4409 255.4565 0015457 138.6227 221.6150 14.47364929457402"],"24870":["1 24870U 97034B   25046.38519301  .00000775  00000-0  25184-3 0   433","2 24870  86.3931 286.0045 0003573  71.7174 288.4412 14.37632858446081"],"24871":["1 24871U 97034C   25046.53261426  .00000703  00000-0  21095-3 0  5324","2 24871  86.3924 265.4294 0013269 118.4050 241.8489 14.41334522449314"],"24876":["1 24876U 97035A   25046.08758326  .00000002  00000-0  00000+0 0  1798","2 24876  55.7554 117.6306 0086868  54.2348 306.6359  2.00562605201984"],"24903":["1 24903U 97043A   25046.40347130  .00000910  00000-0  30068-3 0  3411","2 24903  86.4024 161.7477 0002278  99.5941 260.5514 14.36974220439729"],"24907":["1 24907U 97043E   25046.58188177  .00000783  00000-0  26385-3 0    16","2 24907  86.4029 165.1018 0002081  94.6095 265.5340 14.35806782439329"],"24920":["1 24920U 97047A   25046.12951239  .00000575  00000-0  25625-3 0  1940","2 24920  69.9537  33.8609 0024557 227.6250 132.2794 14.27576926429433"],"24925":["1 24925U 97048A   25046.13670127  .00000981  00000-0  10703-3 0  2180","2 24925  86.3386 191.7034 0005504 200.6381 159.4622 14.86794146487230"],"24931":["1 24931U 97049A   25045.17753245 -.00000086  00000-0  00000-0 0    17","2 24931  10.5901  36.0173 0022613  24.6133 176.9100  1.02479871101690"],"24932":["1 24932U 97049B   25045.38794988 -.00000064  00000-0  00000-0 0    16","2 24932  13.2603  18.2479 0007736  36.7686 150.1519  0.98309015 99956"],"24936":["1 24936U 97050A   25045.19122363 -.00000265  00000-0  00000-0 0    16","2 24936   6.9461  69.5648 0003357 262.6925 169.0054  1.00270727 47541"],"24944":["1 24944U 97051A   25046.43786263  .00000987  00000-0  33145-3 0    18","2 24944  86.3996 194.9031 0001881  89.5826 270.5586 14.36280270435793"],"24946":["1 24946U 97051C   25046.63678585  .00000638  00000-0  21831-3 0    11","2 24946  86.3914 194.0710 0009780 110.7492 249.4753 14.34763831435318"],"24948":["1 24948U 97051E   25046.14197639  .00000847  00000-0  27804-3 0   462","2 24948  86.4006 192.6148 0002430  98.9970 261.1503 14.37214573436384"],"24967":["1 24967U 97056C   25046.47139802  .00000959  00000-0  31468-3 0  2010","2 24967  86.3947 224.0763 0002259  87.9904 272.1552 14.37411944434739"],"25023":["1 25023U 97066A   25045.40651006 -.00000039  00000-0  64994-4 0    11","2 25023   7.7257 250.3303 6485434 341.9011 297.2441  3.10800130308726"],"25025":["1 25025U 97066C   25043.30759380 -.00000050  00000-0  53931-3 0    15","2 25025   7.8683 288.5163 6507951 264.4682 336.5924  3.08005952120092"],"25030":["1 25030U 97067A   25047.42112929  .00000041  00000-0  00000+0 0  4288","2 25030  55.6035 189.8195 0019596 255.0277  64.2951  1.88437702197537"],"25042":["1 25042U 97069D   25046.52671051  .00001117  00000-0  28938-3 0  3782","2 25042  86.3864 263.2971 0017963 359.9086   0.2111 14.48905583431602"],"25043":["1 25043U 97069E   25046.60647266  .00000734  00000-0  23680-3 0    19","2 25043  86.3929 284.3356 0003578 110.3544 249.8039 14.37916952428483"],"25045":["1 25045U 97070A   25047.42514995  .00000038  00000-0  00000+0 0  6791","2 25045  14.5906 358.3150 0004032 290.3315  69.6436  1.00260165 99823"],"25050":["1 25050U 97071B   25046.50796764 -.00000368  00000-0  00000-0 0    19","2 25050  12.4048  23.5169 0003373 286.8583 132.3664  1.00239706 99927"],"25068":["1 25068U 97075B   25044.30715980 -.00000456  00000-0  30856-2 0  3946","2 25068   6.6900 314.0479 8231840 212.5760  45.7913  1.07774116107170"],"25077":["1 25077U 97077A   25046.39427973  .00000702  00000-0  23427-3 0  2153","2 25077  86.3943 290.4486 0002427 101.8673 258.2796 14.36169956423716"],"25078":["1 25078U 97077B   25046.60758211  .00000759  00000-0  23456-3 0    17","2 25078  86.3915 272.5892 0003883  78.1427 282.0208 14.40040466426207"],"25104":["1 25104U 97082A   25046.16387279  .00021360  00000-0  87616-3 0  3973","2 25104  86.3590 106.9071 0131776  67.9163 293.6009 15.16397820433760"],"25105":["1 25105U 97082B   25046.59766143  .00000949  00000-0  28363-3 0    18","2 25105  86.3940 131.8785 0013419 116.3776 243.8804 14.41888036425695"],"25112":["1 25112U 97084A   25046.47487474  .00003525  00000-0  10395-2 0  7321","2 25112  45.0122 231.8646 0005166 354.5044   5.5750 14.45070886423936"],"25113":["1 25113U 97084B   25046.02357116  .00002782  00000-0  83260-3 0    17","2 25113  45.0133 236.2002 0003645 309.4425  50.6103 14.44873321598846"],"25114":["1 25114U 97084C   25046.56057048  .00002896  00000-0  86910-3 0    19","2 25114  45.0117 234.0424 0004450 315.0774  44.9716 14.44645027423885"],"25115":["1 25115U 97084D   25046.59393225  .00003090  00000-0  92443-3 0    18","2 25115  45.0125 233.6448 0003423 311.4221  48.6336 14.44653186423684"],"25116":["1 25116U 97084E   25046.54736440  .00002937  00000-0  88255-3 0    19","2 25116  45.0131 234.6882 0004910 297.5190  62.5161 14.44550456423885"],"25117":["1 25117U 97084F   25046.52126176  .00003264  00000-0  96366-3 0  5041","2 25117  45.0128 231.9384 0001023 301.7368  58.3384 14.45179777423947"],"25118":["1 25118U 97084G   25046.60908421  .00003311  00000-0  97357-3 0    18","2 25118  45.0121 231.3976 0000352 216.5982 220.1533 14.45344658423937"],"25157":["1 25157U 98007A   25046.58976037  .00031083  00000-0  80942-3 0    11","2 25157 108.0297  35.6353 0094292 270.0156  89.0231 15.34421547450975"],"25162":["1 25162U 98008A   25046.48839602 -.00000066  00000-0  23414-3 0  7918","2 25162  52.0058 327.4401 0001874  12.9504 158.1498 12.38207003228745"],"25163":["1 25163U 98008B   25046.30806220 -.00000105  00000-0 -41083-5 0   158","2 25163  52.0002  65.9732 0003016  26.6849 346.3166 12.63387772246383"],"25164":["1 25164U 98008C   25046.56613016 -.00000082  00000-0 -10651-3 0    10","2 25164  51.9994 185.1474 0000337 263.9344  96.1438 11.61508213169938"],"25165":["1 25165U 98008D   25046.57513171  .00000014  00000-0  11048-2 0    16","2 25165  51.9988 145.3304 0008250  52.6393  48.6934 12.12071720218473"],"25175":["1 25175U 98011A   25046.19597166  .00000019  00000-0  00000-0 0    14","2 25175  30.0569 181.5780 5298064 236.8249  61.1193  4.38928326441479"],"25262":["1 25262U 98018A   25046.43309400  .00039228  00000-0  11544-2 0  7059","2 25262  86.3871 115.6603 0104333 356.1013   3.9409 15.29572845428576"],"25273":["1 25273U 98019B   25046.49296071  .00000790  00000-0  26663-3 0    17","2 25273  86.3998 196.1911 0002097  94.3930 265.7506 14.35732199407329"],"25286":["1 25286U 98021B   25046.48528220  .00000676  00000-0  22443-3 0  2160","2 25286  86.4016 133.1906 0002026  94.1202 266.0227 14.36378720406647"],"25306":["1 25306U 98023A   25046.15607101 -.00000055  00000-0  42715-3 0  9180","2 25306  51.9832 111.9675 0001595 134.6680 239.6530 11.65478173176931"],"25307":["1 25307U 98023B   25046.53033539 -.00000064  00000-0  24473-3 0  6820","2 25307  51.9927 158.9464 0003016 231.5396 212.7386 11.58172346202841"],"25308":["1 25308U 98023C   25046.35565856 -.00000062  00000-0  26003-3 0  6697","2 25308  51.9791 252.2721 0011962 215.7551 315.8307 11.48858224180456"],"25309":["1 25309U 98023D   25046.62007512 -.00000097  00000-0 -77802-5 0    12","2 25309  51.9951 190.5071 0001615 276.9858 166.0997 12.36062479222815"],"25311":["1 25311U 98024A   25046.53675148 -.00000058  00000-0  00000+0 0  6205","2 25311   9.5855  55.6832 0027924 278.0077 235.3973  0.97393276 97183"],"25312":["1 25312U 98024B   25046.56810309 -.00000014  00000-0  00000-0 0    15","2 25312  10.4834  48.8941 0005311 244.0916 260.3301  0.99120366 41337"],"25319":["1 25319U 98026A   25046.31429728  .00001123  00000-0  34518-3 0   158","2 25319  86.4031 146.9057 0004294  81.0253 279.1432 14.40756325405750"]}}